{
  "64332": {
    "noradId": "64332",
    "tle": [
      "1 64332C 25124R   26020.87965278  .00095989  00000+0  34838-2 0   206",
      "2 64332  43.0003  31.5978 0001469 263.6928 318.9525 15.27416291    11"
    ]
  },
  "64333": {
    "noradId": "64333",
    "tle": [
      "1 64333C 25124S   26020.87756944  .00093114  00000+0  33809-2 0   200",
      "2 64333  43.0011  31.8543 0001501 263.4555 208.7036 15.27404996    15"
    ]
  },
  "64334": {
    "noradId": "64334",
    "tle": [
      "1 64334C 25124T   26020.87618056  .00089230  00000+0  32369-2 0   206",
      "2 64334  43.0030  31.9599 0001129 260.4546 161.5345 15.27439642    17"
    ]
  },
  "64335": {
    "noradId": "64335",
    "tle": [
      "1 64335C 25124U   26020.88034722  .00029984  00000+0  10873-2 0   206",
      "2 64335  43.0007  31.5399 0002177 257.7533 349.9277 15.27508718    12"
    ]
  },
  "64336": {
    "noradId": "64336",
    "tle": [
      "1 64336C 25124V   26020.87409722  .00083616  00000+0  30333-2 0   207",
      "2 64336  43.0009  27.9692 0002059 253.0398  21.2250 15.27443144    19"
    ]
  },
  "64337": {
    "noradId": "64337",
    "tle": [
      "1 64337C 25124W   26020.87687500  .00097132  00000+0  35260-2 0   202",
      "2 64337  43.0039  31.3792 0001480 270.5538  35.8530 15.27408581    18"
    ]
  },
  "64338": {
    "noradId": "64338",
    "tle": [
      "1 64338C 25124X   26020.87687500  .00099465  00000+0  36102-2 0   200",
      "2 64338  43.0011  28.1154 0001497 264.1392 321.7721 15.27410927    16"
    ]
  },
  "64339": {
    "noradId": "64339",
    "tle": [
      "1 64339C 25124Y   26020.87965278  .00097337  00000+0  35340-2 0   201",
      "2 64339  43.0007  31.7003 0001803 256.0391 284.1893 15.27402474    15"
    ]
  },
  "64344": {
    "noradId": "64344",
    "tle": [
      "1 64344C 25126A   26020.87687500  .00016678  00000+0  13989-2 0   202",
      "2 64344  70.0020 154.9465 0003116 271.5617  17.2698 14.98280804    14"
    ]
  },
  "64345": {
    "noradId": "64345",
    "tle": [
      "1 64345C 25126B   26020.44701389 -.00061254  00000+0 -51327-2 0   208",
      "2 64345  70.0013 156.0003 0003305 271.1587 242.9549 14.98396518    12"
    ]
  },
  "64346": {
    "noradId": "64346",
    "tle": [
      "1 64346C 25126C   26020.44562500 -.00060860  00000+0 -50998-2 0   204",
      "2 64346  70.0019 156.1806 0002874 272.7228  76.3594 14.98396578    15"
    ]
  },
  "64347": {
    "noradId": "64347",
    "tle": [
      "1 64347C 25126D   26020.44354167 -.00064749  00000+0 -54255-2 0   203",
      "2 64347  70.0015 156.2077 0003270 272.4145  42.0264 14.98400424    19"
    ]
  },
  "64348": {
    "noradId": "64348",
    "tle": [
      "1 64348C 25126E   26020.87687500  .00019446  00000+0  16307-2 0   209",
      "2 64348  70.0016 155.1947 0003113 271.9815 152.6331 14.98286189    12"
    ]
  },
  "64349": {
    "noradId": "64349",
    "tle": [
      "1 64349C 25126F   26020.87479167 -.00033854  00000+0 -28374-2 0   206",
      "2 64349  70.0016 154.9467 0003099 271.1075   7.3552 14.98359661    17"
    ]
  },
  "64350": {
    "noradId": "64350",
    "tle": [
      "1 64350C 25126G   26020.45048611 -.00060045  00000+0 -50321-2 0   207",
      "2 64350  70.0020 156.1395 0003283 271.6393 126.1701 14.98389886    19"
    ]
  },
  "64351": {
    "noradId": "64351",
    "tle": [
      "1 64351C 25126H   26020.87965278  .00017396  00000+0  14587-2 0   204",
      "2 64351  70.0019 154.9805 0003287 271.5260 347.2496 14.98289904    13"
    ]
  },
  "64352": {
    "noradId": "64352",
    "tle": [
      "1 64352C 25126J   26020.87826389  .00021454  00000+0  17991-2 0   206",
      "2 64352  70.0018 155.1394 0003109 271.9274 205.1996 14.98284002    12"
    ]
  },
  "64353": {
    "noradId": "64353",
    "tle": [
      "1 64353C 25126K   26020.44493056 -.00071446  00000+0 -59873-2 0   204",
      "2 64353  70.0015 156.0088 0003316 271.3613 230.6533 14.98403224    10"
    ]
  },
  "64354": {
    "noradId": "64354",
    "tle": [
      "1 64354C 25126L   26020.44770833 -.00069226  00000+0 -58008-2 0   208",
      "2 64354  70.0018 156.0748 0003583 270.8427 179.5124 14.98402636    13"
    ]
  },
  "64355": {
    "noradId": "64355",
    "tle": [
      "1 64355C 25126M   26020.88104167  .00012116  00000+0  10163-2 0   202",
      "2 64355  70.0018 155.0052 0002935 272.3851 332.2971 14.98281191    18"
    ]
  },
  "64356": {
    "noradId": "64356",
    "tle": [
      "1 64356C 25126N   26020.87965278  .00020719  00000+0  17376-2 0   201",
      "2 64356  70.0015 155.1584 0003130 271.7652 190.3473 14.98282346    10"
    ]
  },
  "64357": {
    "noradId": "64357",
    "tle": [
      "1 64357C 25126P   26020.44354167 -.00064369  00000+0 -53941-2 0   203",
      "2 64357  70.0018 156.2817 0003361 272.9787 333.9514 14.98396680    11"
    ]
  },
  "64358": {
    "noradId": "64358",
    "tle": [
      "1 64358C 25126Q   26020.43173611 -.00070058  00000+0 -58710-2 0   207",
      "2 64358  70.0014 155.9840 0003249 271.6658 204.2088 14.98401233    15"
    ]
  },
  "64359": {
    "noradId": "64359",
    "tle": [
      "1 64359C 25126R   26020.87409722  .00022314  00000+0  18714-2 0   201",
      "2 64359  70.0019 154.9676 0003379 282.0190 329.3189 14.98277646    18"
    ]
  },
  "64360": {
    "noradId": "64360",
    "tle": [
      "1 64360C 25126S   26020.44562500 -.00056906  00000+0 -47691-2 0   202",
      "2 64360  70.0016 156.1005 0003342 286.7887 128.9339 14.98385717    10"
    ]
  },
  "64361": {
    "noradId": "64361",
    "tle": [
      "1 64361C 25126T   26020.87687500  .00018693  00000+0  15677-2 0   206",
      "2 64361  70.0020 155.0404 0003134 272.9571 286.7111 14.98283844    12"
    ]
  },
  "64362": {
    "noradId": "64362",
    "tle": [
      "1 64362C 25126U   26020.87687500  .00025086  00000+0  21042-2 0   204",
      "2 64362  70.0017 154.8905 0003237 269.1222  65.6311 14.98270710    11"
    ]
  },
  "64363": {
    "noradId": "64363",
    "tle": [
      "1 64363C 25126V   26020.44423611 -.00059290  00000+0 -49688-2 0   201",
      "2 64363  70.0017 155.9300 0003037 275.0393 291.6646 14.98389716    15"
    ]
  },
  "64364": {
    "noradId": "64364",
    "tle": [
      "1 64364C 25126W   26020.44423611 -.00098005  00000+0 -82109-2 0   204",
      "2 64364  70.0017 156.0550 0003154 271.4163 182.7137 14.98439650    18"
    ]
  },
  "64365": {
    "noradId": "64365",
    "tle": [
      "1 64365C 25126X   26020.44840278 -.00067490  00000+0 -56558-2 0   200",
      "2 64365  70.0014 156.2943 0003100 270.0636 341.4632 14.98399680    17"
    ]
  },
  "64366": {
    "noradId": "64366",
    "tle": [
      "1 64366C 25126Y   26020.44631944 -.00066160  00000+0 -55442-2 0   203",
      "2 64366  70.0016 155.9464 0003316 272.5724 282.8400 14.98398669    15"
    ]
  },
  "64367": {
    "noradId": "64367",
    "tle": [
      "1 64367C 25126Z   26020.44423611 -.00065127  00000+0 -54580-2 0   208",
      "2 64367  70.0015 155.9765 0003190 271.1082 249.6782 14.98395379    10"
    ]
  },
  "64368": {
    "noradId": "64368",
    "tle": [
      "1 64368C 25126AA  26020.44909722 -.00062486  00000+0 -52356-2 0   205",
      "2 64368  70.0016 156.1917 0003033 272.1454  73.1429 14.98400702    19"
    ]
  },
  "64369": {
    "noradId": "64369",
    "tle": [
      "1 64369C 25126AB  26020.44909722 -.00058263  00000+0 -48857-2 0   205",
      "2 64369  70.0013 156.2176 0003224 271.7987  50.2126 14.98365002    16"
    ]
  },
  "64370": {
    "noradId": "64370",
    "tle": [
      "1 64370C 25127A   26020.83659722  .00044177  00000+0  34359-3 0   203",
      "2 64370  43.0005  13.0456 0001578 246.2247 185.0132 15.70762170    18"
    ]
  },
  "64371": {
    "noradId": "64371",
    "tle": [
      "1 64371C 25127B   26020.83729167  .00051412  00000+0  39986-3 0   206",
      "2 64371  43.0005  13.2654 0001713 254.0831  90.9100 15.70754807    15"
    ]
  },
  "64372": {
    "noradId": "64372",
    "tle": [
      "1 64372C 25127C   26020.83729167  .00049574  00000+0  38564-3 0   204",
      "2 64372  43.0006  12.8160 0001690 283.1022 242.2695 15.70752077    11"
    ]
  },
  "64373": {
    "noradId": "64373",
    "tle": [
      "1 64373C 25127D   26020.83520833  .00025133  00000+0  19538-3 0   209",
      "2 64373  43.0005  13.4390 0001917 275.0401 352.8314 15.70791169    17"
    ]
  },
  "64374": {
    "noradId": "64374",
    "tle": [
      "1 64374C 25127E   26020.83729167  .00045645  00000+0  35496-3 0   202",
      "2 64374  43.0003  12.5918 0001185 260.5528 354.9714 15.70765257    14"
    ]
  },
  "64375": {
    "noradId": "64375",
    "tle": [
      "1 64375C 25127F   26020.83520833  .00024707  00000+0  19204-3 0   207",
      "2 64375  43.0005  13.4258 0001616 280.3437 352.6758 15.70796449    12"
    ]
  },
  "64376": {
    "noradId": "64376",
    "tle": [
      "1 64376C 25127G   26020.84076389  .00019532  00000+0  15180-3 0   200",
      "2 64376  43.0003  12.9431 0001449 262.5972 222.2328 15.70803974    15"
    ]
  },
  "64377": {
    "noradId": "64377",
    "tle": [
      "1 64377C 25127H   26020.84215278  .00057704  00000+0  44863-3 0   206",
      "2 64377  43.0004  13.1587 0001635 277.8441 124.7089 15.70757824    11"
    ]
  },
  "64378": {
    "noradId": "64378",
    "tle": [
      "1 64378C 25127J   26020.84145833  .00075820  00000+0  58985-3 0   205",
      "2 64378  43.0003  12.7136 0001519 284.8097 294.2132 15.70724900    13"
    ]
  },
  "64379": {
    "noradId": "64379",
    "tle": [
      "1 64379C 25127K   26020.84145833  .00058208  00000+0  45267-3 0   206",
      "2 64379  43.0005  13.3115 0001871 260.6830  77.8258 15.70750411    18"
    ]
  },
  "64380": {
    "noradId": "64380",
    "tle": [
      "1 64380C 25127L   26020.83798611  .00001163  00000+0  90365-5 0   204",
      "2 64380  43.0003  13.1080 0001513 260.2121 148.7444 15.70828196    10"
    ]
  }
}